{"type": "FeatureCollection", "features": [ {"type": "Feature", "properties": {"norad_id": 41556, "name": "ZIYUAN 3-02 (ZY 3-02)", "group": "resource", "lat": -55.37058964303653, "lon": -115.0457735057177, "alt_km": 503.51037057378744, "timestamp": "2025-12-27T21:25:02.157766+00:00", "meta": {"OBJECT_NAME": "ZIYUAN 3-02 (ZY 3-02)", "OBJECT_ID": "2016-033A", "EPOCH": "2025-12-27T12:29:24.141984", "MEAN_MOTION": 15.21268102, "ECCENTRICITY": 0.0011641, "INCLINATION": 97.4022, "RA_OF_ASC_NODE": 75.4392, "ARG_OF_PERICENTER": 191.3349, "MEAN_ANOMALY": 168.7626, "EPHEMERIS_TYPE": 0, "CLASSIFICATION_TYPE": "U", "NORAD_CAT_ID": 41556, "ELEMENT_SET_NO": 999, "REV_AT_EPOCH": 53188, "BSTAR": 0.00035209, "MEAN_MOTION_DOT": 7.815e-05, "MEAN_MOTION_DDOT": 0}, "tle": {"line1": "1 41556U 16033A   25361.52041831  .00007815  00000+0  35209-3 0  9997", "line2": "2 41556  97.4022  75.4392 0011641 191.3349 168.7626 15.21268102531889"}}, "geometry": {"type": "Point", "coordinates": [-115.0457735057177, -55.37058964303653]}}, {"type": "Feature", "properties": {"norad_id": 41599, "name": "CARTOSAT-2C", "group": "resource", "lat": 67.30009399158187, "lon": 40.69215212602985, "alt_km": 497.1895896832457, "timestamp": "2025-12-27T21:25:02.157776+00:00", "meta": {"OBJECT_NAME": "CARTOSAT-2C", "OBJECT_ID": "2016-040A", "EPOCH": "2025-12-27T11:37:59.072736", "MEAN_MOTION": 15.19259269, "ECCENTRICITY": 0.0010512, "INCLINATION": 97.4746, "RA_OF_ASC_NODE": 58.5812, "ARG_OF_PERICENTER": 16.6991, "MEAN_ANOMALY": 343.4588, "EPHEMERIS_TYPE": 0, "CLASSIFICATION_TYPE": "U", "NORAD_CAT_ID": 41599, "ELEMENT_SET_NO": 999, "REV_AT_EPOCH": 52764, "BSTAR": 0.00042693, "MEAN_MOTION_DOT": 8.948e-05, "MEAN_MOTION_DDOT": 0}, "tle": {"line1": "1 41599U 16040A   25361.48471149  .00008948  00000+0  42693-3 0  9999", "line2": "2 41599  97.4746  58.5812 0010512  16.6991 343.4588 15.19259269527645"}}, "geometry": {"type": "Point", "coordinates": [40.69215212602985, 67.30009399158187]}}, {"type": "Feature", "properties": {"norad_id": 41601, "name": "SKYSAT-C1", "group": "resource", "lat": 40.747194899715076, "lon": -135.88781957228994, "alt_km": 464.6400736225378, "timestamp": "2025-12-27T21:25:02.157787+00:00", "meta": {"OBJECT_NAME": "SKYSAT-C1", "OBJECT_ID": "2016-040C", "EPOCH": "2025-12-27T02:00:47.003040", "MEAN_MOTION": 15.32852129, "ECCENTRICITY": 7.8e-05, "INCLINATION": 96.981, "RA_OF_ASC_NODE": 37.2889, "ARG_OF_PERICENTER": 305.2768, "MEAN_ANOMALY": 54.8402, "EPHEMERIS_TYPE": 0, "CLASSIFICATION_TYPE": "U", "NORAD_CAT_ID": 41601, "ELEMENT_SET_NO": 999, "REV_AT_EPOCH": 53147, "BSTAR": 0.00033559294, "MEAN_MOTION_DOT": 0.00010579, "MEAN_MOTION_DDOT": 0}, "tle": {"line1": "1 41601U 16040C   25361.08387735  .00010579  00000+0  33559-3 0  9990", "line2": "2 41601  96.9810  37.2889 0000780 305.2768  54.8402 15.32852129531471"}}, "geometry": {"type": "Point", "coordinates": [-135.88781957228994, 40.747194899715076]}}, {"type": "Feature", "properties": {"norad_id": 41603, "name": "LAPAN-A3", "group": "resource", "lat": -41.8036709697283, "lon": 172.45937267528154, "alt_km": 473.53844634343295, "timestamp": "2025-12-27T21:25:02.157798+00:00", "meta": {"OBJECT_NAME": "LAPAN-A3", "OBJECT_ID": "2016-040E", "EPOCH": "2025-12-27T12:36:36.224064", "MEAN_MOTION": 15.31676612, "ECCENTRICITY": 0.0008641, "INCLINATION": 97.1437, "RA_OF_ASC_NODE": 358.545, "ARG_OF_PERICENTER": 271.781, "MEAN_ANOMALY": 88.2442, "EPHEMERIS_TYPE": 0, "CLASSIFICATION_TYPE": "U", "NORAD_CAT_ID": 41603, "ELEMENT_SET_NO": 999, "REV_AT_EPOCH": 52852, "BSTAR": 0.00016411, "MEAN_MOTION_DOT": 4.95e-05, "MEAN_MOTION_DDOT": 0}, "tle": {"line1": "1 41603U 16040E   25361.52541926  .00004950  00000+0  16411-3 0  9999", "line2": "2 41603  97.1437 358.5450 0008641 271.7810  88.2442 15.31676612528520"}}, "geometry": {"type": "Point", "coordinates": [172.45937267528154, -41.8036709697283]}}, {"type": "Feature", "properties": {"norad_id": 41604, "name": "BIROS", "group": "resource", "lat": 45.81429616069921, "lon": -138.66909566836298, "alt_km": 278.48877503284257, "timestamp": "2025-12-27T21:25:02.157809+00:00", "meta": {"OBJECT_NAME": "BIROS", "OBJECT_ID": "2016-040F", "EPOCH": "2025-12-27T01:17:48.160032", "MEAN_MOTION": 15.95745444, "ECCENTRICITY": 0.00039701, "INCLINATION": 97.065, "RA_OF_ASC_NODE": 33.1199, "ARG_OF_PERICENTER": 119.7348, "MEAN_ANOMALY": 240.4324, "EPHEMERIS_TYPE": 0, "CLASSIFICATION_TYPE": "U", "NORAD_CAT_ID": 41604, "ELEMENT_SET_NO": 999, "REV_AT_EPOCH": 53100, "BSTAR": 0.00067247339, "MEAN_MOTION_DOT": 0.00269024, "MEAN_MOTION_DDOT": 3.0289219e-05}, "tle": {"line1": "1 41604U 16040F   25361.05402963  .00269024  30289-4  67247-3 0  9990", "line2": "2 41604  97.0650  33.1199 0003970 119.7348 240.4324 15.95745444531008"}}, "geometry": {"type": "Point", "coordinates": [-138.66909566836298, 45.81429616069921]}}, {"type": "Feature", "properties": {"norad_id": 41727, "name": "GAOFEN-3", "group": "resource", "lat": 8.302421889778332, "lon": -171.5163014476517, "alt_km": 753.3418576188942, "timestamp": "2025-12-27T21:25:02.157820+00:00", "meta": {"OBJECT_NAME": "GAOFEN-3", "OBJECT_ID": "2016-049A", "EPOCH": "2025-12-27T12:17:57.767424", "MEAN_MOTION": 14.42217484, "ECCENTRICITY": 0.0001043, "INCLINATION": 98.4042, "RA_OF_ASC_NODE": 6.8734, "ARG_OF_PERICENTER": 54.4579, "MEAN_ANOMALY": 305.6707, "EPHEMERIS_TYPE": 0, "CLASSIFICATION_TYPE": "U", "NORAD_CAT_ID": 41727, "ELEMENT_SET_NO": 999, "REV_AT_EPOCH": 49390, "BSTAR": 5.9628e-05, "MEAN_MOTION_DOT": 1.53e-06, "MEAN_MOTION_DDOT": 0}, "tle": {"line1": "1 41727U 16049A   25361.51247416  .00000153  00000+0  59628-4 0  9990", "line2": "2 41727  98.4042   6.8734 0001043  54.4579 305.6707 14.42217484493900"}}, "geometry": {"type": "Point", "coordinates": [-171.5163014476517, 8.302421889778332]}}, {"type": "Feature", "properties": {"norad_id": 41771, "name": "SKYSAT-C4", "group": "resource", "lat": -63.57492222404103, "lon": -167.8355649932245, "alt_km": 446.48541923474113, "timestamp": "2025-12-27T21:25:02.157830+00:00", "meta": {"OBJECT_NAME": "SKYSAT-C4", "OBJECT_ID": "2016-058B", "EPOCH": "2025-12-27T01:40:48.462240", "MEAN_MOTION": 15.42665603, "ECCENTRICITY": 0.00026667, "INCLINATION": 96.9365, "RA_OF_ASC_NODE": 25.5626, "ARG_OF_PERICENTER": 121.1316, "MEAN_ANOMALY": 239.0195, "EPHEMERIS_TYPE": 0, "CLASSIFICATION_TYPE": "U", "NORAD_CAT_ID": 41771, "ELEMENT_SET_NO": 999, "REV_AT_EPOCH": 51888, "BSTAR": 0.00040521995, "MEAN_MOTION_DOT": 0.00017599, "MEAN_MOTION_DDOT": 0}, "tle": {"line1": "1 41771U 16058B   25361.07000535  .00017599  00000+0  40522-3 0  9993", "line2": "2 41771  96.9365  25.5626 0002666 121.1316 239.0195 15.42665603518888"}}, "geometry": {"type": "Point", "coordinates": [-167.8355649932245, -63.57492222404103]}}, {"type": "Feature", "properties": {"norad_id": 41772, "name": "SKYSAT-C5", "group": "resource", "lat": 62.239740098425735, "lon": 31.363301052642512, "alt_km": 459.95128707161166, "timestamp": "2025-12-27T21:25:02.157840+00:00", "meta": {"OBJECT_NAME": "SKYSAT-C5", "OBJECT_ID": "2016-058C", "EPOCH": "2025-12-27T02:21:29.429856", "MEAN_MOTION": 15.34140488, "ECCENTRICITY": 0.00040611, "INCLINATION": 97.0741, "RA_OF_ASC_NODE": 44.249, "ARG_OF_PERICENTER": 222.2692, "MEAN_ANOMALY": 137.824, "EPHEMERIS_TYPE": 0, "CLASSIFICATION_TYPE": "U", "NORAD_CAT_ID": 41772, "ELEMENT_SET_NO": 999, "REV_AT_EPOCH": 51736, "BSTAR": 0.00033469855, "MEAN_MOTION_DOT": 0.0001099, "MEAN_MOTION_DDOT": 0}, "tle": {"line1": "1 41772U 16058C   25361.09825729  .00010990  00000+0  33470-3 0  9998", "line2": "2 41772  97.0741  44.2490 0004061 222.2692 137.8240 15.34140488517365"}}, "geometry": {"type": "Point", "coordinates": [31.363301052642512, 62.239740098425735]}}, {"type": "Feature", "properties": {"norad_id": 41773, "name": "SKYSAT-C2", "group": "resource", "lat": -73.96899242191276, "lon": -179.67754329380395, "alt_km": 460.52265491238177, "timestamp": "2025-12-27T21:25:02.157853+00:00", "meta": {"OBJECT_NAME": "SKYSAT-C2", "OBJECT_ID": "2016-058D", "EPOCH": "2025-12-27T07:48:50.206176", "MEAN_MOTION": 15.37603061, "ECCENTRICITY": 0.0002519, "INCLINATION": 97.0354, "RA_OF_ASC_NODE": 25.2352, "ARG_OF_PERICENTER": 348.3195, "MEAN_ANOMALY": 11.7991, "EPHEMERIS_TYPE": 0, "CLASSIFICATION_TYPE": "U", "NORAD_CAT_ID": 41773, "ELEMENT_SET_NO": 999, "REV_AT_EPOCH": 51860, "BSTAR": 0.00034154, "MEAN_MOTION_DOT": 0.00012534, "MEAN_MOTION_DDOT": 0}, "tle": {"line1": "1 41773U 16058D   25361.32558109  .00012534  00000+0  34154-3 0  9996", "line2": "2 41773  97.0354  25.2352 0002519 348.3195  11.7991 15.37603061518601"}}, "geometry": {"type": "Point", "coordinates": [-179.67754329380395, -73.96899242191276]}}, {"type": "Feature", "properties": {"norad_id": 41774, "name": "SKYSAT-C3", "group": "resource", "lat": 61.618425116619186, "lon": -132.05750098575945, "alt_km": 424.172623341924, "timestamp": "2025-12-27T21:25:02.157864+00:00", "meta": {"OBJECT_NAME": "SKYSAT-C3", "OBJECT_ID": "2016-058E", "EPOCH": "2025-12-27T02:15:23.553504", "MEAN_MOTION": 15.4491929, "ECCENTRICITY": 0.00021259, "INCLINATION": 96.9283, "RA_OF_ASC_NODE": 34.1738, "ARG_OF_PERICENTER": 105.0525, "MEAN_ANOMALY": 255.0961, "EPHEMERIS_TYPE": 0, "CLASSIFICATION_TYPE": "U", "NORAD_CAT_ID": 41774, "ELEMENT_SET_NO": 999, "REV_AT_EPOCH": 51947, "BSTAR": 0.00045270234, "MEAN_MOTION_DOT": 0.00021233, "MEAN_MOTION_DDOT": 0}, "tle": {"line1": "1 41774U 16058E   25361.09402261  .00021233  00000+0  45270-3 0  9995", "line2": "2 41774  96.9283  34.1738 0002125 105.0525 255.0961 15.44919290519474"}}, "geometry": {"type": "Point", "coordinates": [-132.05750098575945, 61.618425116619186]}}]}